[{"OBJECT_NAME":"KEPLER-13 (LUCKY)","OBJECT_ID":"2021-006AT","EPOCH":"2022-10-28T16:16:24.707136","MEAN_MOTION":15.18446589,"ECCENTRICITY":0.0010352,"INCLINATION":97.4218,"RA_OF_ASC_NODE":358.0463,"ARG_OF_PERICENTER":162.8958,"MEAN_ANOMALY":197.2627,"EPHEMERIS_TYPE":0,"CLASSIFICATION_TYPE":"U","NORAD_CAT_ID":47454,"ELEMENT_SET_NO":999,"REV_AT_EPOCH":9747,"BSTAR":0.00057243,"MEAN_MOTION_DOT":0.00011747,"MEAN_MOTION_DDOT":0},{"OBJECT_NAME":"SPACEBEE-42","OBJECT_ID":"2021-006AU","EPOCH":"2022-10-28T15:37:16.036320","MEAN_MOTION":15.2899744,"ECCENTRICITY":0.0008506,"INCLINATION":97.4237,"RA_OF_ASC_NODE":0.9211,"ARG_OF_PERICENTER":162.547,"MEAN_ANOMALY":197.6064,"EPHEMERIS_TYPE":0,"CLASSIFICATION_TYPE":"U","NORAD_CAT_ID":47455,"ELEMENT_SET_NO":999,"REV_AT_EPOCH":9765,"BSTAR":0.0014951,"MEAN_MOTION_DOT":0.0004226,"MEAN_MOTION_DDOT":0},{"OBJECT_NAME":"FLOCK 4S-21","OBJECT_ID":"2021-006AV","EPOCH":"2022-10-28T16:41:38.383296","MEAN_MOTION":15.1861571,"ECCENTRICITY":0.0010407,"INCLINATION":97.429,"RA_OF_ASC_NODE":358.6086,"ARG_OF_PERICENTER":163.4097,"MEAN_ANOMALY":196.748,"EPHEMERIS_TYPE":0,"CLASSIFICATION_TYPE":"U","NORAD_CAT_ID":47456,"ELEMENT_SET_NO":999,"REV_AT_EPOCH":9747,"BSTAR":0.00044098,"MEAN_MOTION_DOT":9.075e-5,"MEAN_MOTION_DDOT":0},{"OBJECT_NAME":"LEMUR-2-NALLYWACKER","OBJECT_ID":"2021-006AW","EPOCH":"2022-10-28T16:56:44.176704","MEAN_MOTION":15.20762454,"ECCENTRICITY":0.0010165,"INCLINATION":97.4294,"RA_OF_ASC_NODE":359.3576,"ARG_OF_PERICENTER":166.545,"MEAN_ANOMALY":193.6059,"EPHEMERIS_TYPE":0,"CLASSIFICATION_TYPE":"U","NORAD_CAT_ID":47457,"ELEMENT_SET_NO":999,"REV_AT_EPOCH":9752,"BSTAR":0.0007752,"MEAN_MOTION_DOT":0.0001705,"MEAN_MOTION_DDOT":0},{"OBJECT_NAME":"IDEASSAT","OBJECT_ID":"2021-006AX","EPOCH":"2022-10-28T17:38:56.444064","MEAN_MOTION":15.16721334,"ECCENTRICITY":0.001079,"INCLINATION":97.427,"RA_OF_ASC_NODE":358.1863,"ARG_OF_PERICENTER":167.3003,"MEAN_ANOMALY":192.8504,"EPHEMERIS_TYPE":0,"CLASSIFICATION_TYPE":"U","NORAD_CAT_ID":47458,"ELEMENT_SET_NO":999,"REV_AT_EPOCH":9745,"BSTAR":0.00038143,"MEAN_MOTION_DOT":7.424e-5,"MEAN_MOTION_DDOT":0},{"OBJECT_NAME":"SPACEBEE-55","OBJECT_ID":"2021-006AY","EPOCH":"2022-10-28T16:28:25.981248","MEAN_MOTION":15.18663621,"ECCENTRICITY":0.0011075,"INCLINATION":97.4198,"RA_OF_ASC_NODE":358.038,"ARG_OF_PERICENTER":173.9191,"MEAN_ANOMALY":186.218,"EPHEMERIS_TYPE":0,"CLASSIFICATION_TYPE":"U","NORAD_CAT_ID":47459,"ELEMENT_SET_NO":999,"REV_AT_EPOCH":9748,"BSTAR":0.00057411,"MEAN_MOTION_DOT":0.00011858,"MEAN_MOTION_DDOT":0},{"OBJECT_NAME":"SPACEBEE-54","OBJECT_ID":"2021-006AZ","EPOCH":"2022-10-28T23:42:52.246944","MEAN_MOTION":15.28988969,"ECCENTRICITY":0.0008389,"INCLINATION":97.4245,"RA_OF_ASC_NODE":1.2714,"ARG_OF_PERICENTER":162.2055,"MEAN_ANOMALY":197.948,"EPHEMERIS_TYPE":0,"CLASSIFICATION_TYPE":"U","NORAD_CAT_ID":47460,"ELEMENT_SET_NO":999,"REV_AT_EPOCH":9770,"BSTAR":0.0016335,"MEAN_MOTION_DOT":0.00046189,"MEAN_MOTION_DDOT":0},{"OBJECT_NAME":"KEPLER-15 (SUDORMRF)","OBJECT_ID":"2021-006BA","EPOCH":"2022-10-28T16:50:53.950848","MEAN_MOTION":15.17317337,"ECCENTRICITY":0.0007148,"INCLINATION":97.4223,"RA_OF_ASC_NODE":357.1939,"ARG_OF_PERICENTER":182.6599,"MEAN_ANOMALY":177.4597,"EPHEMERIS_TYPE":0,"CLASSIFICATION_TYPE":"U","NORAD_CAT_ID":47461,"ELEMENT_SET_NO":999,"REV_AT_EPOCH":9741,"BSTAR":0.0005994,"MEAN_MOTION_DOT":0.00011903,"MEAN_MOTION_DDOT":0},{"OBJECT_NAME":"FLOCK 4S-11","OBJECT_ID":"2021-006BB","EPOCH":"2022-10-28T16:50:26.346048","MEAN_MOTION":15.14722156,"ECCENTRICITY":0.0007762,"INCLINATION":97.4241,"RA_OF_ASC_NODE":356.582,"ARG_OF_PERICENTER":186.6639,"MEAN_ANOMALY":173.4491,"EPHEMERIS_TYPE":0,"CLASSIFICATION_TYPE":"U","NORAD_CAT_ID":47462,"ELEMENT_SET_NO":999,"REV_AT_EPOCH":9736,"BSTAR":0.00032708,"MEAN_MOTION_DOT":5.999e-5,"MEAN_MOTION_DDOT":0},{"OBJECT_NAME":"SPACEBEE-58","OBJECT_ID":"2021-006BD","EPOCH":"2022-10-29T03:58:42.033792","MEAN_MOTION":15.30498119,"ECCENTRICITY":0.0010581,"INCLINATION":97.4278,"RA_OF_ASC_NODE":3.0127,"ARG_OF_PERICENTER":157.1588,"MEAN_ANOMALY":203.0125,"EPHEMERIS_TYPE":0,"CLASSIFICATION_TYPE":"U","NORAD_CAT_ID":47464,"ELEMENT_SET_NO":999,"REV_AT_EPOCH":9781,"BSTAR":0.0018423,"MEAN_MOTION_DOT":0.00054671,"MEAN_MOTION_DDOT":0},{"OBJECT_NAME":"SPACEBEE-57","OBJECT_ID":"2021-006BE","EPOCH":"2022-10-28T16:12:06.655392","MEAN_MOTION":15.16940777,"ECCENTRICITY":0.0005257,"INCLINATION":97.4218,"RA_OF_ASC_NODE":356.8812,"ARG_OF_PERICENTER":178.1775,"MEAN_ANOMALY":181.9479,"EPHEMERIS_TYPE":0,"CLASSIFICATION_TYPE":"U","NORAD_CAT_ID":47465,"ELEMENT_SET_NO":999,"REV_AT_EPOCH":9739,"BSTAR":0.00053455,"MEAN_MOTION_DOT":0.00010489,"MEAN_MOTION_DDOT":0},{"OBJECT_NAME":"SPACEBEE-44","OBJECT_ID":"2021-006BF","EPOCH":"2022-10-28T16:03:44.654112","MEAN_MOTION":15.26272102,"ECCENTRICITY":0.0005556,"INCLINATION":97.4248,"RA_OF_ASC_NODE":359.5961,"ARG_OF_PERICENTER":166.9468,"MEAN_ANOMALY":193.1915,"EPHEMERIS_TYPE":0,"CLASSIFICATION_TYPE":"U","NORAD_CAT_ID":47466,"ELEMENT_SET_NO":999,"REV_AT_EPOCH":9756,"BSTAR":0.0013464,"MEAN_MOTION_DOT":0.00034974,"MEAN_MOTION_DDOT":0},{"OBJECT_NAME":"SPACEBEE-56","OBJECT_ID":"2021-006BH","EPOCH":"2022-10-28T16:19:56.606592","MEAN_MOTION":15.2556949,"ECCENTRICITY":0.0005567,"INCLINATION":97.4254,"RA_OF_ASC_NODE":359.4652,"ARG_OF_PERICENTER":169.2163,"MEAN_ANOMALY":190.9195,"EPHEMERIS_TYPE":0,"CLASSIFICATION_TYPE":"U","NORAD_CAT_ID":47468,"ELEMENT_SET_NO":999,"REV_AT_EPOCH":9755,"BSTAR":0.0013519,"MEAN_MOTION_DOT":0.00034381,"MEAN_MOTION_DDOT":0},{"OBJECT_NAME":"FLOCK 4S-33","OBJECT_ID":"2021-006BJ","EPOCH":"2022-10-28T17:19:43.038624","MEAN_MOTION":15.1870958,"ECCENTRICITY":0.0006313,"INCLINATION":97.4236,"RA_OF_ASC_NODE":357.9033,"ARG_OF_PERICENTER":176.8522,"MEAN_ANOMALY":183.2753,"EPHEMERIS_TYPE":0,"CLASSIFICATION_TYPE":"U","NORAD_CAT_ID":47469,"ELEMENT_SET_NO":999,"REV_AT_EPOCH":9745,"BSTAR":0.00054976,"MEAN_MOTION_DOT":0.00011355,"MEAN_MOTION_DDOT":0},{"OBJECT_NAME":"SPACEBEE-45","OBJECT_ID":"2021-006BK","EPOCH":"2022-10-29T03:16:03.558720","MEAN_MOTION":15.2609236,"ECCENTRICITY":0.0005794,"INCLINATION":97.425,"RA_OF_ASC_NODE":0.0829,"ARG_OF_PERICENTER":165.7357,"MEAN_ANOMALY":194.4046,"EPHEMERIS_TYPE":0,"CLASSIFICATION_TYPE":"U","NORAD_CAT_ID":47470,"ELEMENT_SET_NO":999,"REV_AT_EPOCH":9763,"BSTAR":0.0017091,"MEAN_MOTION_DOT":0.00044232,"MEAN_MOTION_DDOT":0},{"OBJECT_NAME":"FLOCK 4S-12","OBJECT_ID":"2021-006BL","EPOCH":"2022-10-28T17:12:25.539264","MEAN_MOTION":15.18685285,"ECCENTRICITY":0.0007318,"INCLINATION":97.427,"RA_OF_ASC_NODE":358.1762,"ARG_OF_PERICENTER":180.5871,"MEAN_ANOMALY":179.5356,"EPHEMERIS_TYPE":0,"CLASSIFICATION_TYPE":"U","NORAD_CAT_ID":47471,"ELEMENT_SET_NO":999,"REV_AT_EPOCH":9745,"BSTAR":0.00031595,"MEAN_MOTION_DOT":6.489e-5,"MEAN_MOTION_DDOT":0},{"OBJECT_NAME":"FLOCK 4S-13","OBJECT_ID":"2021-006BM","EPOCH":"2022-10-28T16:54:44.210304","MEAN_MOTION":15.1859004,"ECCENTRICITY":0.0007163,"INCLINATION":97.4299,"RA_OF_ASC_NODE":358.4069,"ARG_OF_PERICENTER":176.4561,"MEAN_ANOMALY":183.6725,"EPHEMERIS_TYPE":0,"CLASSIFICATION_TYPE":"U","NORAD_CAT_ID":47472,"ELEMENT_SET_NO":999,"REV_AT_EPOCH":9745,"BSTAR":0.00090201,"MEAN_MOTION_DOT":0.0001863,"MEAN_MOTION_DDOT":0}]
