KEPLER-13 (LUCKY)       
1 47454U 21006AT  22301.67806374  .00011747  00000+0  57243-3 0  9995
2 47454  97.4218 358.0463 0010352 162.8958 197.2627 15.18446589 97478
SPACEBEE-42             
1 47455U 21006AU  22301.65088005  .00042260  00000+0  14951-2 0  9999
2 47455  97.4237   0.9211 0008506 162.5470 197.6064 15.28997440 97655
FLOCK 4S-21             
1 47456U 21006AV  22301.69558314  .00009075  00000+0  44098-3 0  9992
2 47456  97.4290 358.6086 0010407 163.4097 196.7480 15.18615710 97474
LEMUR-2-NALLYWACKER     
1 47457U 21006AW  22301.70606686  .00017050  00000+0  77520-3 0  9999
2 47457  97.4294 359.3576 0010165 166.5450 193.6059 15.20762454 97524
IDEASSAT                
1 47458U 21006AX  22301.73537551  .00007424  00000+0  38143-3 0  9999
2 47458  97.4270 358.1863 0010790 167.3003 192.8504 15.16721334 97457
SPACEBEE-55             
1 47459U 21006AY  22301.68641182  .00011858  00000+0  57411-3 0  9995
2 47459  97.4198 358.0380 0011075 173.9191 186.2180 15.18663621 97484
SPACEBEE-54             
1 47460U 21006AZ  22301.98810471  .00046189  00000+0  16335-2 0  9993
2 47460  97.4245   1.2714 0008389 162.2055 197.9480 15.28988969 97704
KEPLER-15 (SUDORMRF)    
1 47461U 21006BA  22301.70201332  .00011903  00000+0  59940-3 0  9990
2 47461  97.4223 357.1939 0007148 182.6599 177.4597 15.17317337 97417
FLOCK 4S-11             
1 47462U 21006BB  22301.70169382  .00005999  00000+0  32708-3 0  9990
2 47462  97.4241 356.5820 0007762 186.6639 173.4491 15.14722156 97360
SPACEBEE-58             
1 47464U 21006BD  22302.16576428  .00054671  00000+0  18423-2 0  9994
2 47464  97.4278   3.0127 0010581 157.1588 203.0125 15.30498119 97816
SPACEBEE-57             
1 47465U 21006BE  22301.67507703  .00010489  00000+0  53455-3 0  9994
2 47465  97.4218 356.8812 0005257 178.1775 181.9479 15.16940777 97391
SPACEBEE-44             
1 47466U 21006BF  22301.66926683  .00034974  00000+0  13464-2 0  9996
2 47466  97.4248 359.5961 0005556 166.9468 193.1915 15.26272102 97566
SPACEBEE-56             
1 47468U 21006BH  22301.68051628  .00034381  00000+0  13519-2 0  9991
2 47468  97.4254 359.4652 0005567 169.2163 190.9195 15.25569490 97553
FLOCK 4S-33             
1 47469U 21006BJ  22301.72202591  .00011355  00000+0  54976-3 0  9993
2 47469  97.4236 357.9033 0006313 176.8522 183.2753 15.18709580 97455
SPACEBEE-45             
1 47470U 21006BK  22302.13615230  .00044232  00000+0  17091-2 0  9995
2 47470  97.4250   0.0829 0005794 165.7357 194.4046 15.26092360 97636
FLOCK 4S-12             
1 47471U 21006BL  22301.71696226  .00006489  00000+0  31595-3 0  9991
2 47471  97.4270 358.1762 0007318 180.5871 179.5356 15.18685285 97455
FLOCK 4S-13             
1 47472U 21006BM  22301.70467836  .00018630  00000+0  90201-3 0  9994
2 47472  97.4299 358.4069 0007163 176.4561 183.6725 15.18590040 97458
